[{"OBJECT_NAME":"STARLINK-4068","OBJECT_ID":"2022-053AB","EPOCH":"2026-03-09T11:29:20.672736","MEAN_MOTION":15.08838363,"ECCENTRICITY":0.00013845,"INCLINATION":53.2176,"RA_OF_ASC_NODE":145.0683,"ARG_OF_PERICENTER":86.5681,"MEAN_ANOMALY":273.5469,"EPHEMERIS_TYPE":0,"CLASSIFICATION_TYPE":"U","NORAD_CAT_ID":52681,"ELEMENT_SET_NO":999,"REV_AT_EPOCH":21110,"BSTAR":-3.4283707e-5,"MEAN_MOTION_DOT":-8.33e-6,"MEAN_MOTION_DDOT":0},{"OBJECT_NAME":"CZ-6A DEB","OBJECT_ID":"2022-151RK","EPOCH":"2026-03-09T04:16:52.342176","MEAN_MOTION":15.00981633,"ECCENTRICITY":0.00383954,"INCLINATION":98.6273,"RA_OF_ASC_NODE":143.4522,"ARG_OF_PERICENTER":188.2396,"MEAN_ANOMALY":171.8199,"EPHEMERIS_TYPE":0,"CLASSIFICATION_TYPE":"U","NORAD_CAT_ID":54922,"ELEMENT_SET_NO":999,"REV_AT_EPOCH":17321,"BSTAR":0.0056092635,"MEAN_MOTION_DOT":0.00073321,"MEAN_MOTION_DDOT":0}]
